{
  "norad_id": 68424,
  "name": "TRANSPORTER-16 OBJECT J",
  "history": [
    {
      "epoch": "2026-04-14T03:19:08.105664Z",
      "apogee_km": 512.7352974132464,
      "perigee_km": 512.6625301859958,
      "latitude_deg": -1.8452794874744248e-05,
      "longitude_deg": 171.45371222031432,
      "height_km": 515.8180749362544,
      "semi_major_axis_km": 6890.83591379962,
      "eccentricity": 5.28e-06,
      "inclination_deg": 97.4469,
      "raan_deg": 63.5565,
      "arg_perigee_deg": 204.7381,
      "mean_anomaly_deg": 155.385,
      "mean_motion_rev_day": 15.1773133
    }
  ]
}