TRANSPORTER-16 OBJECT J
1 68424U 26067J   26104.13828826  .00003234  00000+0  16363-3 0  9999
2 68424  97.4469  63.5565 0000052 204.7381 155.3850 15.17731330  2221
